     2.10           N: GPS NAV DATA                         RINEX VERSION / TYPE
teqc  2012Jun6      GSI, JAPAN          20160101 17:06:50UTCPGM / RUN BY / DATE
Linux 2.4.21-27.ELsmp|Opteron|gcc -static|Linux x86_64|=+   COMMENT
                                                            END OF HEADER
 3 15 12 31 12  0  0.0-5.241017788649D-06-5.115907697473D-12 0.000000000000D+00
    9.900000000000D+01 1.762500000000D+01 4.540546274835D-09-4.562637499937D-01
    8.475035429001D-07 3.285001730546D-04 9.486451745033D-06 5.153798011780D+03
    3.888000000000D+05-1.303851604462D-08 1.511915734936D+00-3.725290298462D-09
    9.588331771934D-01 1.940625000000D+02 2.880652960816D+00-7.948188216800D-09
    1.246480492344D-10 1.000000000000D+00 1.877000000000D+03 0.000000000000D+00
    2.800000000000D+00 0.000000000000D+00 1.862645149231D-09 9.900000000000D+01
    3.838800000000D+05 4.000000000000D+00
16 15 12 31 12  0  0.0-5.247909575701D-05 3.410605131648D-12 0.000000000000D+00
    1.000000000000D+02 3.121875000000D+01 3.758013679211D-09-1.641520276251D-01
    1.749023795128D-06 8.330889511853D-03 7.394701242447D-06 5.153685091019D+03
    3.888000000000D+05 9.499490261078D-08-1.561118822339D+00 3.166496753693D-08
    9.905926430054D-01 2.515312500000D+02 3.130082738910D-01-7.882114035973D-09
    1.807218135032D-10 1.000000000000D+00 1.877000000000D+03 0.000000000000D+00
    2.000000000000D+00 0.000000000000D+00-1.024454832077D-08 1.000000000000D+02
    3.850200000000D+05 4.000000000000D+00
 3 15 12 31 11 59 44.0-5.240086466074D-06-5.115907697473D-12 0.000000000000D+00
    2.200000000000D+01 1.762500000000D+01 4.540546274835D-09-4.586124064533D-01
    8.475035429001D-07 3.285001730546D-04 9.486451745033D-06 5.153798000336D+03
    3.887840000000D+05-1.303851604462D-08 1.511915863673D+00-3.725290298462D-09
    9.588331669529D-01 1.940625000000D+02 2.880668159072D+00-7.948188216800D-09
    1.246480492344D-10 1.000000000000D+00 1.877000000000D+03 0.000000000000D+00
    2.000000000000D+00 0.000000000000D+00 1.862645149231D-09 2.200000000000D+01
    3.859500000000D+05 4.000000000000D+00
 3 15 12 31 13 59 44.0-5.277339369059D-06-5.115907697473D-12 0.000000000000D+00
    2.300000000000D+01 1.234375000000D+01 4.537689012961D-09 5.924012943146D-01
    5.923211574554D-07 3.288256702945D-04 9.475275874138D-06 5.153798570633D+03
    3.959840000000D+05-2.793967723846D-08 1.511858607985D+00-5.587935447693D-09
    9.588340095937D-01 1.943125000000D+02 2.879758921838D+00-7.960688737497D-09
    1.250052069686D-10 1.000000000000D+00 1.877000000000D+03 0.000000000000D+00
    2.000000000000D+00 0.000000000000D+00 1.862645149231D-09 2.300000000000D+01
    3.888000000000D+05 4.000000000000D+00
14 15 12 31 14  0  0.0 1.207320019603D-05-2.387423592154D-12 0.000000000000D+00
    1.100000000000D+01 2.762500000000D+01 4.753055126681D-09-1.569734491114D-01
    1.469627022743D-06 8.306602248922D-03 6.241723895073D-06 5.153700117111D+03
    3.960000000000D+05-6.332993507385D-08 2.635375570359D+00 8.381903171539D-08
    9.649714936789D-01 2.640312500000D+02-1.947313496692D+00-8.343204670821D-09
   -8.964659128322D-11 1.000000000000D+00 1.877000000000D+03 0.000000000000D+00
    2.000000000000D+00 0.000000000000D+00-9.313225746155D-09 1.100000000000D+01
    3.888000000000D+05 4.000000000000D+00
16 15 12 31 14  0  0.0-5.245488137007D-05 3.410605131648D-12 0.000000000000D+00
    1.010000000000D+02 3.106250000000D+01 3.716940539779D-09 8.859811646946D-01
    1.760199666023D-06 8.330596843734D-03 7.702037692070D-06 5.153684785843D+03
    3.960000000000D+05-7.450580596924D-09-1.561174816992D+00 1.266598701477D-07
    9.905940444810D-01 2.456562500000D+02 3.130437350252D-01-7.791395971488D-09
    1.046472161195D-10 1.000000000000D+00 1.877000000000D+03 0.000000000000D+00
    2.800000000000D+00 0.000000000000D+00-1.024454832077D-08 1.010000000000D+02
    3.888000000000D+05 4.000000000000D+00
25 15 12 31 14  0  0.0-9.177066385746D-05-6.252776074689D-12 0.000000000000D+00
    2.900000000000D+01 4.481250000000D+01 3.929449391625D-09 2.332048488940D+00
    2.343207597733D-06 4.881948931143D-03 8.760020136833D-06 5.153582601547D+03
    3.960000000000D+05-5.587935447693D-08-1.629115004505D+00-7.078051567078D-08
    9.784288975709D-01 2.180000000000D+02 6.956560404550D-01-7.837826476933D-09
    2.075086435679D-10 1.000000000000D+00 1.877000000000D+03 0.000000000000D+00
    2.000000000000D+00 0.000000000000D+00 5.587935447693D-09 2.900000000000D+01
    3.888000000000D+05 4.000000000000D+00
26 15 12 31 14  0  0.0-1.903520897031D-04-1.705302565824D-11 0.000000000000D+00
    5.600000000000D+01 3.378125000000D+01 4.350538360243D-09 1.967914089647D+00
    1.801177859306D-06 6.242856616154D-04 8.126720786095D-06 5.153693458557D+03
    3.960000000000D+05 1.676380634308D-08-1.635499860723D+00-9.313225746155D-09
    9.604729737718D-01 2.214375000000D+02-2.846068077931D-01-8.073193423768D-09
    1.478633019572D-10 1.000000000000D+00 1.877000000000D+03 0.000000000000D+00
    2.000000000000D+00 0.000000000000D+00 7.450580596924D-09 5.600000000000D+01
    3.888000000000D+05 4.000000000000D+00
29 15 12 31 14  0  0.0 6.502065807581D-04 1.250555214938D-12 0.000000000000D+00
    1.200000000000D+02-1.703125000000D+01 4.407683597714D-09 2.487250363276D+00
   -1.056119799614D-06 9.486766066402D-04 4.442408680916D-06 5.153635593414D+03
    3.960000000000D+05 2.048909664154D-08-5.277694755571D-01 2.048909664154D-08
    9.758991655003D-01 2.999062500000D+02-5.985471565316D-01-8.155339702633D-09
    1.667926618696D-10 1.000000000000D+00 1.877000000000D+03 0.000000000000D+00
    2.000000000000D+00 0.000000000000D+00-1.024454832077D-08 1.200000000000D+02
    3.888000000000D+05 4.000000000000D+00
31 15 12 31 14  0  0.0 2.890084870160D-04-1.591615728103D-12 0.000000000000D+00
    1.600000000000D+01-3.125000000000D-01 4.175888228221D-09-2.955682193330D+00
    4.656612873077D-08 8.344029774889D-03 7.933005690575D-06 5.153668605804D+03
    3.960000000000D+05-1.862645149231D-09-2.644341654827D+00 8.381903171539D-08
    9.731493242383D-01 2.352187500000D+02-4.661278452615D-01-7.832111953186D-09
   -3.489431063096D-10 1.000000000000D+00 1.877000000000D+03 0.000000000000D+00
    2.000000000000D+00 0.000000000000D+00-1.350417733192D-08 1.600000000000D+01
    3.888000000000D+05 4.000000000000D+00
32 15 12 31 14  0  0.0 6.550271064043D-05 1.227817847393D-11 0.000000000000D+00
    4.200000000000D+01 1.253125000000D+01 4.827343935394D-09-2.538482109901D+00
    5.532056093216D-07 1.136910880450D-02 9.467825293541D-06 5.153639268875D+03
    3.960000000000D+05-1.713633537292D-07 1.590964703529D+00-2.514570951462D-07
    9.463906917368D-01 1.864687500000D+02 2.041941698725D-01-8.047478066906D-09
    1.642925577302D-10 1.000000000000D+00 1.877000000000D+03 0.000000000000D+00
    2.000000000000D+00 0.000000000000D+00-3.259629011154D-09 4.200000000000D+01
    3.888000000000D+05 4.000000000000D+00
21 15 12 31 13 59 44.0-5.026413127780D-04-2.160049916711D-12 0.000000000000D+00
    2.000000000000D+01-8.753125000000D+01 5.075925718395D-09 2.345597840159D+00
   -4.690140485764D-06 2.286087919492D-02 7.603317499161D-06 5.153699331284D+03
    3.959840000000D+05 2.719461917877D-07 4.415715218206D-01-2.905726432800D-07
    9.355614625987D-01 2.175000000000D+02-1.847600072919D+00-8.001047561461D-09
   -1.335769925893D-10 1.000000000000D+00 1.877000000000D+03 0.000000000000D+00
    2.000000000000D+00 0.000000000000D+00-1.164153218269D-08 2.000000000000D+01
    3.892200000000D+05 4.000000000000D+00
23 15 12 31 14  0  0.0-1.525557599962D-04-1.932676241267D-12 0.000000000000D+00
    7.200000000000D+01 3.096875000000D+01 4.970921344541D-09-1.352331000460D+00
    1.512467861176D-06 1.039958780166D-02 5.770474672318D-06 5.153748544693D+03
    3.960000000000D+05 1.676380634308D-07 2.559619435795D+00-1.117587089539D-07
    9.468671656181D-01 2.580625000000D+02-2.617898417223D+00-8.247129240322D-09
   -1.714357124141D-11 1.000000000000D+00 1.877000000000D+03 0.000000000000D+00
    2.000000000000D+00 0.000000000000D+00-2.002343535423D-08 7.200000000000D+01
    3.899100000000D+05 4.000000000000D+00
27 15 12 31 14  0  0.0 4.920922219753D-05 3.410605131648D-12 0.000000000000D+00
    8.000000000000D+01-1.418750000000D+01 4.530188700543D-09-9.997847380760D-02
   -7.357448339462D-07 2.928062924184D-03 4.775822162628D-06 5.153711690903D+03
    3.960000000000D+05 1.303851604462D-08-5.863875745619D-01 1.862645149231D-08
    9.698826530369D-01 2.920312500000D+02 2.334571659823D-01-8.237843139233D-09
    1.528635102359D-10 1.000000000000D+00 1.877000000000D+03 0.000000000000D+00
    2.000000000000D+00 0.000000000000D+00 1.862645149231D-09 8.000000000000D+01
    3.904800000000D+05 4.000000000000D+00
16 15 12 31 13 59 44.0-5.245534703135D-05 3.410605131648D-12 0.000000000000D+00
    7.000000000000D+00 3.106250000000D+01 3.716583382044D-09 8.836472456718D-01
    1.760199666023D-06 8.330595213920D-03 7.702037692070D-06 5.153684787750D+03
    3.959840000000D+05-7.450580596924D-09-1.561174669237D+00 1.266598701477D-07
    9.905940474068D-01 2.456562500000D+02 3.130439456854D-01-7.791395971488D-09
    1.046472161195D-10 1.000000000000D+00 1.877000000000D+03 0.000000000000D+00
    2.000000000000D+00 0.000000000000D+00-1.024454832077D-08 7.000000000000D+00
    3.934500000000D+05 4.000000000000D+00
 9 15 12 31 14  0  0.0 4.017120227218D-05 7.958078640513D-12 0.000000000000D+00
    1.050000000000D+02 3.500000000000D+01 4.823772358052D-09-1.413893163583D-01
    1.749023795128D-06 5.411393940449D-04 6.048008799553D-06 5.153664100647D+03
    3.960000000000D+05-3.725290298462D-09 2.553009670552D+00 2.793967723846D-08
    9.558943532481D-01 2.590937500000D+02 1.905585594443D+00-8.234985877359D-09
   -7.857470152314D-11 1.000000000000D+00 1.877000000000D+03 0.000000000000D+00
    2.000000000000D+00 0.000000000000D+00 9.313225746155D-10 1.050000000000D+02
    3.944400000000D+05 4.000000000000D+00
